[{"OBJECT_NAME":"ONEWEB-0210","OBJECT_ID":"2021-045W","EPOCH":"2025-12-20T02:42:52.602048","MEAN_MOTION":13.15550752,"ECCENTRICITY":0.00024495,"INCLINATION":87.9004,"RA_OF_ASC_NODE":294.9082,"ARG_OF_PERICENTER":70.8078,"MEAN_ANOMALY":289.3317,"EPHEMERIS_TYPE":0,"CLASSIFICATION_TYPE":"U","NORAD_CAT_ID":48787,"ELEMENT_SET_NO":999,"REV_AT_EPOCH":22077,"BSTAR":-0.00022125747,"MEAN_MOTION_DOT":-7.0e-7,"MEAN_MOTION_DDOT":0},{"OBJECT_NAME":"ONEWEB-0214","OBJECT_ID":"2021-045X","EPOCH":"2025-12-20T02:55:26.757408","MEAN_MOTION":13.15548785,"ECCENTRICITY":0.00022401,"INCLINATION":87.9016,"RA_OF_ASC_NODE":294.8987,"ARG_OF_PERICENTER":77.2538,"MEAN_ANOMALY":282.8842,"EPHEMERIS_TYPE":0,"CLASSIFICATION_TYPE":"U","NORAD_CAT_ID":48788,"ELEMENT_SET_NO":999,"REV_AT_EPOCH":22074,"BSTAR":0.00021200854,"MEAN_MOTION_DOT":9.3e-7,"MEAN_MOTION_DDOT":0},{"OBJECT_NAME":"ONEWEB-0221","OBJECT_ID":"2021-045Y","EPOCH":"2025-12-20T03:05:42.273600","MEAN_MOTION":13.15550299,"ECCENTRICITY":0.00018959,"INCLINATION":87.9008,"RA_OF_ASC_NODE":294.9113,"ARG_OF_PERICENTER":69.6072,"MEAN_ANOMALY":290.5261,"EPHEMERIS_TYPE":0,"CLASSIFICATION_TYPE":"U","NORAD_CAT_ID":48789,"ELEMENT_SET_NO":999,"REV_AT_EPOCH":22083,"BSTAR":0.0003277396,"MEAN_MOTION_DOT":1.36e-6,"MEAN_MOTION_DDOT":0},{"OBJECT_NAME":"ONEWEB-0213","OBJECT_ID":"2021-045Z","EPOCH":"2025-12-19T21:21:08.599104","MEAN_MOTION":13.15547267,"ECCENTRICITY":0.0002046,"INCLINATION":87.8998,"RA_OF_ASC_NODE":294.966,"ARG_OF_PERICENTER":71.7286,"MEAN_ANOMALY":288.4067,"EPHEMERIS_TYPE":0,"CLASSIFICATION_TYPE":"U","NORAD_CAT_ID":48790,"ELEMENT_SET_NO":999,"REV_AT_EPOCH":22086,"BSTAR":-0.0014886,"MEAN_MOTION_DOT":-5.48e-6,"MEAN_MOTION_DDOT":0},{"OBJECT_NAME":"ONEWEB-0212","OBJECT_ID":"2021-045AA","EPOCH":"2025-12-19T09:50:55.561920","MEAN_MOTION":13.15545916,"ECCENTRICITY":0.0001795,"INCLINATION":87.9007,"RA_OF_ASC_NODE":295.0525,"ARG_OF_PERICENTER":76.9316,"MEAN_ANOMALY":283.2015,"EPHEMERIS_TYPE":0,"CLASSIFICATION_TYPE":"U","NORAD_CAT_ID":48791,"ELEMENT_SET_NO":999,"REV_AT_EPOCH":22079,"BSTAR":-0.00019002,"MEAN_MOTION_DOT":-5.9e-7,"MEAN_MOTION_DDOT":0},{"OBJECT_NAME":"ONEWEB-0227","OBJECT_ID":"2021-045AB","EPOCH":"2025-12-20T02:15:30.345408","MEAN_MOTION":13.15549924,"ECCENTRICITY":0.00018079,"INCLINATION":87.8998,"RA_OF_ASC_NODE":294.9256,"ARG_OF_PERICENTER":74.0713,"MEAN_ANOMALY":286.0616,"EPHEMERIS_TYPE":0,"CLASSIFICATION_TYPE":"U","NORAD_CAT_ID":48792,"ELEMENT_SET_NO":999,"REV_AT_EPOCH":22083,"BSTAR":-0.00041252344,"MEAN_MOTION_DOT":-1.42e-6,"MEAN_MOTION_DDOT":0},{"OBJECT_NAME":"ONEWEB-0226","OBJECT_ID":"2021-045AC","EPOCH":"2025-12-20T02:06:22.891680","MEAN_MOTION":13.15547629,"ECCENTRICITY":0.00021143,"INCLINATION":87.9001,"RA_OF_ASC_NODE":294.936,"ARG_OF_PERICENTER":72.9103,"MEAN_ANOMALY":287.2258,"EPHEMERIS_TYPE":0,"CLASSIFICATION_TYPE":"U","NORAD_CAT_ID":48793,"ELEMENT_SET_NO":999,"REV_AT_EPOCH":22080,"BSTAR":-0.00019137311,"MEAN_MOTION_DOT":-5.9e-7,"MEAN_MOTION_DDOT":0},{"OBJECT_NAME":"ONEWEB-0224","OBJECT_ID":"2021-045AD","EPOCH":"2025-12-19T19:45:19.359936","MEAN_MOTION":13.15550151,"ECCENTRICITY":0.00014134,"INCLINATION":87.9,"RA_OF_ASC_NODE":295.024,"ARG_OF_PERICENTER":46.139,"MEAN_ANOMALY":313.9857,"EPHEMERIS_TYPE":0,"CLASSIFICATION_TYPE":"U","NORAD_CAT_ID":48794,"ELEMENT_SET_NO":999,"REV_AT_EPOCH":22069,"BSTAR":0.00026045617,"MEAN_MOTION_DOT":1.11e-6,"MEAN_MOTION_DDOT":0},{"OBJECT_NAME":"ONEWEB-0233","OBJECT_ID":"2021-045AE","EPOCH":"2025-12-20T03:10:03.058176","MEAN_MOTION":13.15551021,"ECCENTRICITY":0.0001881,"INCLINATION":87.8999,"RA_OF_ASC_NODE":294.9729,"ARG_OF_PERICENTER":66.9751,"MEAN_ANOMALY":293.1577,"EPHEMERIS_TYPE":0,"CLASSIFICATION_TYPE":"U","NORAD_CAT_ID":48795,"ELEMENT_SET_NO":999,"REV_AT_EPOCH":22075,"BSTAR":0.00063182461,"MEAN_MOTION_DOT":2.51e-6,"MEAN_MOTION_DDOT":0},{"OBJECT_NAME":"ONEWEB-0190","OBJECT_ID":"2021-045AF","EPOCH":"2025-12-19T21:23:27.234816","MEAN_MOTION":13.15548796,"ECCENTRICITY":0.0002337,"INCLINATION":87.8996,"RA_OF_ASC_NODE":294.9824,"ARG_OF_PERICENTER":61.4672,"MEAN_ANOMALY":298.6693,"EPHEMERIS_TYPE":0,"CLASSIFICATION_TYPE":"U","NORAD_CAT_ID":48796,"ELEMENT_SET_NO":999,"REV_AT_EPOCH":22079,"BSTAR":-0.00015386,"MEAN_MOTION_DOT":-4.5e-7,"MEAN_MOTION_DDOT":0},{"OBJECT_NAME":"ONEWEB-0236","OBJECT_ID":"2021-045AG","EPOCH":"2025-12-20T05:06:37.218528","MEAN_MOTION":13.15550662,"ECCENTRICITY":0.00016775,"INCLINATION":87.8998,"RA_OF_ASC_NODE":294.9298,"ARG_OF_PERICENTER":78.8847,"MEAN_ANOMALY":281.2472,"EPHEMERIS_TYPE":0,"CLASSIFICATION_TYPE":"U","NORAD_CAT_ID":48797,"ELEMENT_SET_NO":999,"REV_AT_EPOCH":22072,"BSTAR":0.00057699475,"MEAN_MOTION_DOT":2.3e-6,"MEAN_MOTION_DDOT":0},{"OBJECT_NAME":"ONEWEB-0248","OBJECT_ID":"2021-045AH","EPOCH":"2025-12-20T05:24:52.897536","MEAN_MOTION":13.15546343,"ECCENTRICITY":0.00018276,"INCLINATION":87.9011,"RA_OF_ASC_NODE":294.8918,"ARG_OF_PERICENTER":58.2521,"MEAN_ANOMALY":301.8787,"EPHEMERIS_TYPE":0,"CLASSIFICATION_TYPE":"U","NORAD_CAT_ID":48798,"ELEMENT_SET_NO":999,"REV_AT_EPOCH":22088,"BSTAR":0.00031251889,"MEAN_MOTION_DOT":1.3e-6,"MEAN_MOTION_DDOT":0},{"OBJECT_NAME":"ONEWEB-0225","OBJECT_ID":"2021-045AJ","EPOCH":"2025-12-20T02:17:46.522176","MEAN_MOTION":13.15546237,"ECCENTRICITY":0.00021127,"INCLINATION":87.9001,"RA_OF_ASC_NODE":294.9407,"ARG_OF_PERICENTER":61.9573,"MEAN_ANOMALY":298.1771,"EPHEMERIS_TYPE":0,"CLASSIFICATION_TYPE":"U","NORAD_CAT_ID":48799,"ELEMENT_SET_NO":999,"REV_AT_EPOCH":22087,"BSTAR":-0.0016654684,"MEAN_MOTION_DOT":-6.14e-6,"MEAN_MOTION_DDOT":0},{"OBJECT_NAME":"ONEWEB-0215","OBJECT_ID":"2021-045AK","EPOCH":"2025-12-20T05:13:27.769728","MEAN_MOTION":13.15551372,"ECCENTRICITY":0.00021127,"INCLINATION":87.9015,"RA_OF_ASC_NODE":294.8787,"ARG_OF_PERICENTER":57.9617,"MEAN_ANOMALY":302.1719,"EPHEMERIS_TYPE":0,"CLASSIFICATION_TYPE":"U","NORAD_CAT_ID":48800,"ELEMENT_SET_NO":999,"REV_AT_EPOCH":22076,"BSTAR":0.0004120721,"MEAN_MOTION_DOT":1.68e-6,"MEAN_MOTION_DDOT":0},{"OBJECT_NAME":"ONEWEB-0216","OBJECT_ID":"2021-045AL","EPOCH":"2025-12-20T05:27:10.334016","MEAN_MOTION":13.15549797,"ECCENTRICITY":0.00020171,"INCLINATION":87.9002,"RA_OF_ASC_NODE":294.9061,"ARG_OF_PERICENTER":75.9853,"MEAN_ANOMALY":284.1502,"EPHEMERIS_TYPE":0,"CLASSIFICATION_TYPE":"U","NORAD_CAT_ID":48801,"ELEMENT_SET_NO":999,"REV_AT_EPOCH":22077,"BSTAR":0.00021642483,"MEAN_MOTION_DOT":9.4e-7,"MEAN_MOTION_DDOT":0},{"OBJECT_NAME":"ONEWEB-0239","OBJECT_ID":"2021-045AM","EPOCH":"2025-12-19T20:26:23.438688","MEAN_MOTION":13.15546607,"ECCENTRICITY":0.00019324,"INCLINATION":87.9002,"RA_OF_ASC_NODE":294.9956,"ARG_OF_PERICENTER":51.753,"MEAN_ANOMALY":308.3774,"EPHEMERIS_TYPE":0,"CLASSIFICATION_TYPE":"U","NORAD_CAT_ID":48802,"ELEMENT_SET_NO":999,"REV_AT_EPOCH":22076,"BSTAR":7.9943708e-5,"MEAN_MOTION_DOT":4.3e-7,"MEAN_MOTION_DDOT":0}]
