ONEWEB-0210             
1 48787U 21045W   25354.11310882 -.00000070  00000+0 -22126-3 0  9993
2 48787  87.9004 294.9082 0002449  70.8078 289.3317 13.15550752220772
ONEWEB-0214             
1 48788U 21045X   25354.12183747  .00000093  00000+0  21201-3 0  9999
2 48788  87.9016 294.8987 0002240  77.2538 282.8842 13.15548785220741
ONEWEB-0221             
1 48789U 21045Y   25354.12896150  .00000136  00000+0  32774-3 0  9994
2 48789  87.9008 294.9113 0001895  69.6072 290.5261 13.15550299220832
ONEWEB-0213             
1 48790U 21045Z   25353.88968286 -.00000548  00000+0 -14886-2 0  9990
2 48790  87.8998 294.9660 0002046  71.7286 288.4067 13.15547267220862
ONEWEB-0212             
1 48791U 21045AA  25353.41036530 -.00000059  00000+0 -19002-3 0  9991
2 48791  87.9007 295.0525 0001795  76.9316 283.2015 13.15545916220795
ONEWEB-0227             
1 48792U 21045AB  25354.09410122 -.00000142  00000+0 -41252-3 0  9995
2 48792  87.8998 294.9256 0001807  74.0713 286.0616 13.15549924220833
ONEWEB-0226             
1 48793U 21045AC  25354.08776495 -.00000059  00000+0 -19137-3 0  9997
2 48793  87.9001 294.9360 0002114  72.9103 287.2258 13.15547629220800
ONEWEB-0224             
1 48794U 21045AD  25353.82314074  .00000111  00000+0  26046-3 0  9994
2 48794  87.9000 295.0240 0001413  46.1390 313.9857 13.15550151220694
ONEWEB-0233             
1 48795U 21045AE  25354.13197984  .00000251  00000+0  63182-3 0  9996
2 48795  87.8999 294.9729 0001881  66.9751 293.1577 13.15551021220753
ONEWEB-0190             
1 48796U 21045AF  25353.89128744 -.00000045  00000+0 -15386-3 0  9993
2 48796  87.8996 294.9824 0002337  61.4672 298.6693 13.15548796220794
ONEWEB-0236             
1 48797U 21045AG  25354.21293077  .00000230  00000+0  57699-3 0  9990
2 48797  87.8998 294.9298 0001677  78.8847 281.2472 13.15550662220725
ONEWEB-0248             
1 48798U 21045AH  25354.22561224  .00000130  00000+0  31252-3 0  9990
2 48798  87.9011 294.8918 0001827  58.2521 301.8787 13.15546343220885
ONEWEB-0225             
1 48799U 21045AJ  25354.09567734 -.00000614  00000+0 -16655-2 0  9996
2 48799  87.9001 294.9407 0002112  61.9573 298.1771 13.15546237220877
ONEWEB-0215             
1 48800U 21045AK  25354.21768252  .00000168  00000+0  41207-3 0  9995
2 48800  87.9015 294.8787 0002112  57.9617 302.1719 13.15551372220761
ONEWEB-0216             
1 48801U 21045AL  25354.22720294  .00000094  00000+0  21642-3 0  9990
2 48801  87.9002 294.9061 0002017  75.9853 284.1502 13.15549797220778
ONEWEB-0239             
1 48802U 21045AM  25353.85166017  .00000043  00000+0  79944-4 0  9999
2 48802  87.9002 294.9956 0001932  51.7530 308.3774 13.15546607220767
